#aV2007  8 24  0  0   .00000000      96 DD+AD WGS84 FIT  NGA
## 1441 432000.00000000   900.00000000 54336  .0000000000000
+   31     1  2  3  4  5  6  7  8  9 10 11 12 13 14 16 17 18
+         19 20 21 22 23 24 25 26 27 28 29 30 31 32  0  0  0
+          0  0  0  0  0  0  0  0  0  0  0  0  0  0  0  0  0
+          0  0  0  0  0  0  0  0  0  0  0  0  0  0  0  0  0
+          0  0  0  0  0  0  0  0  0  0  0  0  0  0  0  0  0
++         0  0  0  0  0  0  0  0  0  0  0  0  0  0  0  0  0
++         0  0  0  0  0  0  0  0  0  0  0  0  0  0  0  0  0
++         0  0  0  0  0  0  0  0  0  0  0  0  0  0  0  0  0
++         0  0  0  0  0  0  0  0  0  0  0  0  0  0  0  0  0
++         0  0  0  0  0  0  0  0  0  0  0  0  0  0  0  0  0
%c cc cc ccc ccc cccc cccc cccc cccc ccccc ccccc ccccc ccccc
%c cc cc ccc ccc cccc cccc cccc cccc ccccc ccccc ccccc ccccc
%f  0.0000000  0.000000000  0.00000000000  0.000000000000000
%f  0.0000000  0.000000000  0.00000000000  0.000000000000000
%i    0    0    0    0      0      0      0      0         0
%i    0    0    0    0      0      0      0      0         0
/*      NGA, ST. LOUIS,MO.                                  
/*   EPHEMERIS COMPUTED FROM  3 DAYS OF DATA                
/* CCCCCCCCCCCCCCCCCCCCCCCCCCCCCCCCCCCCCCCCCCCCCCCCCCCCCCCCC
/* CCCCCCCCCCCCCCCCCCCCCCCCCCCCCCCCCCCCCCCCCCCCCCCCCCCCCCCCC
*  2007  8 24 17 30   .00000000                                                 
P  1  16161.708822 -20791.488080   3311.154267    148.129711                    
V  1   4058.798448  -1623.158478 -32095.266843       .024213                    
P  2  -8317.078096  13876.611781  20820.543075    131.434020                    
V  2 -26494.897886  -5284.439337  -7295.264093       .027860                    
P  3   7990.947102 -23659.761033  -8743.980985    105.992191                    
V  3   9270.631440  -6982.768780  28414.789213       .052676                    
P  4 -20367.140067   7600.610164  15427.973659      -.534356                    
V  4 -18909.093792  -5628.662349 -21735.813493      -.024740                    
P  5  15969.465113  19505.638874   8350.884912    323.712517                    
V  5   1862.935485  11214.694164 -28739.316546       .373414                    
P  6  16491.453352   3663.000465  20690.412510    246.597509                    
V  6 -15047.043011  21156.900719   8290.321174       .008180                    
P  7  17598.038555   1157.832649  20216.007730    -26.560551                    
V  7 -13746.248932  20913.440258  10910.487233     -1.051158                    
P  8 -25317.472793    519.564917  -8861.451117   -120.113890                    
V  8 -10324.050285  -3982.651207  29197.397167      -.014125                    
P  9  13868.169727  14456.275876 -18150.571506     84.637732                    
V  9 -21715.292972  -1619.907003 -18321.137502       .016631                    
P 10  -1023.101809  23267.492427  12351.087528    106.554969                    
V 10  -7440.059692 -14337.599278  26459.261059      -.035828                    
P 11 -16584.171873 -13100.604927 -16367.912092     22.666910                    
V 11  20701.429258  -2926.171913 -18455.899648       .006313                    
P 12  11472.583449  23739.719172   3589.725227    -53.800055                    
V 12   -958.845964   5081.735331 -31316.017442      -.012758                    
P 13 -15575.373835  -3205.938133  21160.832927    200.917418                    
V 13  17629.552397 -20506.920439   9844.193878       .030595                    
P 14  20376.845233 -14106.023099  -9333.442812     37.354629                    
V 14  -6459.318595  10245.261637 -29406.183849       .021806                    
P 16   5191.191409 -20009.947517  16661.195077    171.409935                    
V 16   8736.010714  19257.340297  20656.472467       .023801                    
P 17 -20598.856218  12534.440845 -10962.716112     56.796503                    
V 17   7052.661433 -12363.213367 -27472.548467      -.012958                    
P 18  16784.977015   8697.197617 -18638.582183   -239.239605                    
V 18   6052.536524  23160.216834  15775.315656       .016129                    
P 19    997.609570 -19413.043020 -17937.608238     60.531308                    
V 19  17104.116755 -15531.064591  17798.321768       .026237                    
P 20 -13553.983656 -21815.843649   6733.822053    -28.584032                    
V 20   -370.238992  -9168.075996 -29957.387713      -.005276                    
P 21  26212.923342   5927.139440    848.966579     78.568355                    
V 21  -1475.345916   2781.155163  30841.001762      -.001112                    
P 22  14146.311540  -6174.980660 -21454.288155    195.491827                    
V 22   8581.506066  26297.124993  -1939.531896       .011668                    
P 23  -8766.065329 -12555.542081  21597.370928    194.261409                    
V 23  18029.832866 -20916.735201  -5043.801288       .037561                    
P 24  20077.526271  12888.548896  11561.435330     25.264328                    
V 24 -14733.761141   -524.473737  26918.450467       .028231                    
P 25 -24000.615562  -7720.960496   8469.388983    418.167312                    
V 25  10470.958373  -1890.332081  29350.516840       .122958                    
P 26  -4081.575562  20580.351829 -16383.969251      2.765989                    
V 26 -14491.376141  14043.805981  22389.419939       .139154                    
P 27 -26352.480429  -4024.273922   1688.393619    130.796003                    
V 27   1607.456359  -2318.553069  31614.323947       .023556                    
P 28 -15134.807611   1872.778507 -21430.092133     -5.592499                    
V 28  -8897.269412 -26540.801048   3563.824036      -.007633                    
P 29  -8024.223553  21971.726230 -11999.415842      5.272590                    
V 29 -11501.649282  10793.096640  27381.265571       .001713                    
P 30  16873.486926  15109.249492  13638.119669     43.498036                    
V 30   4485.950975  17457.420545 -24211.018309       .013077                    
P 31  17248.871644  -9755.065040  17914.983599     11.805256                    
V 31  21779.240769   5119.849377 -18313.105504      -.012359                    
P 32   7363.140773 -18105.190941 -17575.835582     27.290449                    
V 32   7660.966798  21927.240818 -18751.758338       .180306                    
EOF
